CCSDS_OMM_VERS = 2.0
CREATION_DATE  = 
ORIGINATOR     = 

OBJECT_NAME    = SL-14 R/B
OBJECT_ID      = 1986-046B
CENTER_NAME    = EARTH
REF_FRAME      = TEME
TIME_SYSTEM    = UTC
MEAN_ELEMENT_THEORY = SGP/SGP4

EPOCH          = 2026-02-17T14:24:59.927904
MEAN_MOTION    = 14.85570064
ECCENTRICITY   = .0021629
INCLINATION    = 82.4799
RA_OF_ASC_NODE = 99.1679
ARG_OF_PERICENTER = 296.0029
MEAN_ANOMALY   = 63.8959

EPHEMERIS_TYPE = 0
CLASSIFICATION_TYPE = U
NORAD_CAT_ID   = 16792
ELEMENT_SET_NO = 999
REV_AT_EPOCH   = 12342
BSTAR          = .45813E-4
MEAN_MOTION_DOT = .421E-5
MEAN_MOTION_DDOT = 0

CCSDS_OMM_VERS = 2.0
CREATION_DATE  = 
ORIGINATOR     = 

OBJECT_NAME    = SL-14 R/B
OBJECT_ID      = 1986-055B
CENTER_NAME    = EARTH
REF_FRAME      = TEME
TIME_SYSTEM    = UTC
MEAN_ELEMENT_THEORY = SGP/SGP4

EPOCH          = 2026-02-17T16:10:50.990592
MEAN_MOTION    = 14.85621670
ECCENTRICITY   = .0019872
INCLINATION    = 82.5230
RA_OF_ASC_NODE = 145.4822
ARG_OF_PERICENTER = 42.1559
MEAN_ANOMALY   = 71.9345

EPHEMERIS_TYPE = 0
CLASSIFICATION_TYPE = U
NORAD_CAT_ID   = 16882
ELEMENT_SET_NO = 999
REV_AT_EPOCH   = 11639
BSTAR          = .50744E-4
MEAN_MOTION_DOT = .465E-5
MEAN_MOTION_DDOT = 0

CCSDS_OMM_VERS = 2.0
CREATION_DATE  = 
ORIGINATOR     = 

OBJECT_NAME    = AJISAI (EGS)
OBJECT_ID      = 1986-061A
CENTER_NAME    = EARTH
REF_FRAME      = TEME
TIME_SYSTEM    = UTC
MEAN_ELEMENT_THEORY = SGP/SGP4

EPOCH          = 2026-02-17T19:16:44.180832
MEAN_MOTION    = 12.44515313
ECCENTRICITY   = .0011231
INCLINATION    = 50.0083
RA_OF_ASC_NODE = 154.4986
ARG_OF_PERICENTER = 235.7720
MEAN_ANOMALY   = 211.1236

EPHEMERIS_TYPE = 0
CLASSIFICATION_TYPE = U
NORAD_CAT_ID   = 16908
ELEMENT_SET_NO = 999
REV_AT_EPOCH   = 46552
BSTAR          = -.21094E-4
MEAN_MOTION_DOT = -.1E-5
MEAN_MOTION_DDOT = 0

CCSDS_OMM_VERS = 2.0
CREATION_DATE  = 
ORIGINATOR     = 

OBJECT_NAME    = COSMOS 1812
OBJECT_ID      = 1987-003A
CENTER_NAME    = EARTH
REF_FRAME      = TEME
TIME_SYSTEM    = UTC
MEAN_ELEMENT_THEORY = SGP/SGP4

EPOCH          = 2026-02-17T19:39:28.502496
MEAN_MOTION    = 16.01489824
ECCENTRICITY   = .0003056
INCLINATION    = 82.4747
RA_OF_ASC_NODE = 218.2844
ARG_OF_PERICENTER = 300.5884
MEAN_ANOMALY   = 59.5093

EPHEMERIS_TYPE = 0
CLASSIFICATION_TYPE = U
NORAD_CAT_ID   = 17295
ELEMENT_SET_NO = 999
REV_AT_EPOCH   = 14128
BSTAR          = .71304E-3
MEAN_MOTION_DOT = .39351E-2
MEAN_MOTION_DDOT = .65601E-4

CCSDS_OMM_VERS = 2.0
CREATION_DATE  = 
ORIGINATOR     = 

OBJECT_NAME    = SL-14 R/B
OBJECT_ID      = 1987-024B
CENTER_NAME    = EARTH
REF_FRAME      = TEME
TIME_SYSTEM    = UTC
MEAN_ELEMENT_THEORY = SGP/SGP4

EPOCH          = 2026-02-17T15:23:39.412032
MEAN_MOTION    = 14.86112378
ECCENTRICITY   = .0017371
INCLINATION    = 82.5275
RA_OF_ASC_NODE = 111.6086
ARG_OF_PERICENTER = 331.5630
MEAN_ANOMALY   = 28.4637

EPHEMERIS_TYPE = 0
CLASSIFICATION_TYPE = U
NORAD_CAT_ID   = 17567
ELEMENT_SET_NO = 999
REV_AT_EPOCH   = 8515
BSTAR          = .46128E-4
MEAN_MOTION_DOT = .429E-5
MEAN_MOTION_DDOT = 0

CCSDS_OMM_VERS = 2.0
CREATION_DATE  = 
ORIGINATOR     = 

OBJECT_NAME    = COSMOS 1833
OBJECT_ID      = 1987-027A
CENTER_NAME    = EARTH
REF_FRAME      = TEME
TIME_SYSTEM    = UTC
MEAN_ELEMENT_THEORY = SGP/SGP4

EPOCH          = 2026-02-17T07:57:05.253120
MEAN_MOTION    = 14.13057385
ECCENTRICITY   = .00248617
INCLINATION    = 70.9227
RA_OF_ASC_NODE = 8.8029
ARG_OF_PERICENTER = 242.2527
MEAN_ANOMALY   = 117.6073

EPHEMERIS_TYPE = 0
CLASSIFICATION_TYPE = U
NORAD_CAT_ID   = 17589
ELEMENT_SET_NO = 999
REV_AT_EPOCH   = 744
BSTAR          = .1518808E-5
MEAN_MOTION_DOT = -.45E-6
MEAN_MOTION_DDOT = 0

CCSDS_OMM_VERS = 2.0
CREATION_DATE  = 
ORIGINATOR     = 

OBJECT_NAME    = SL-16 R/B
OBJECT_ID      = 1987-027B
CENTER_NAME    = EARTH
REF_FRAME      = TEME
TIME_SYSTEM    = UTC
MEAN_ELEMENT_THEORY = SGP/SGP4

EPOCH          = 2026-02-17T17:12:18.362880
MEAN_MOTION    = 14.17163739
ECCENTRICITY   = .0004546
INCLINATION    = 71.0040
RA_OF_ASC_NODE = 318.5827
ARG_OF_PERICENTER = 178.1533
MEAN_ANOMALY   = 181.9609

EPHEMERIS_TYPE = 0
CLASSIFICATION_TYPE = U
NORAD_CAT_ID   = 17590
ELEMENT_SET_NO = 999
REV_AT_EPOCH   = 1251
BSTAR          = .12811E-3
MEAN_MOTION_DOT = .21E-5
MEAN_MOTION_DDOT = 0

CCSDS_OMM_VERS = 2.0
CREATION_DATE  = 
ORIGINATOR     = 

OBJECT_NAME    = SL-14 R/B
OBJECT_ID      = 1987-038B
CENTER_NAME    = EARTH
REF_FRAME      = TEME
TIME_SYSTEM    = UTC
MEAN_ELEMENT_THEORY = SGP/SGP4

EPOCH          = 2026-02-17T16:38:32.689824
MEAN_MOTION    = 14.85349824
ECCENTRICITY   = .0017977
INCLINATION    = 82.5036
RA_OF_ASC_NODE = 315.6419
ARG_OF_PERICENTER = 227.8832
MEAN_ANOMALY   = 132.0857

EPHEMERIS_TYPE = 0
CLASSIFICATION_TYPE = U
NORAD_CAT_ID   = 17912
ELEMENT_SET_NO = 999
REV_AT_EPOCH   = 7626
BSTAR          = .50148E-4
MEAN_MOTION_DOT = .456E-5
MEAN_MOTION_DDOT = 0

CCSDS_OMM_VERS = 2.0
CREATION_DATE  = 
ORIGINATOR     = 

OBJECT_NAME    = COSMOS 1844
OBJECT_ID      = 1987-041A
CENTER_NAME    = EARTH
REF_FRAME      = TEME
TIME_SYSTEM    = UTC
MEAN_ELEMENT_THEORY = SGP/SGP4

EPOCH          = 2026-02-17T12:42:28.620288
MEAN_MOTION    = 14.14548891
ECCENTRICITY   = .0029049
INCLINATION    = 70.8980
RA_OF_ASC_NODE = 76.7001
ARG_OF_PERICENTER = 50.0513
MEAN_ANOMALY   = 310.3154

EPHEMERIS_TYPE = 0
CLASSIFICATION_TYPE = U
NORAD_CAT_ID   = 17973
ELEMENT_SET_NO = 999
REV_AT_EPOCH   = 73
BSTAR          = .20293E-3
MEAN_MOTION_DOT = .343E-5
MEAN_MOTION_DDOT = 0

CCSDS_OMM_VERS = 2.0
CREATION_DATE  = 
ORIGINATOR     = 

OBJECT_NAME    = SL-14 R/B
OBJECT_ID      = 1987-055B
CENTER_NAME    = EARTH
REF_FRAME      = TEME
TIME_SYSTEM    = UTC
MEAN_ELEMENT_THEORY = SGP/SGP4

EPOCH          = 2026-02-17T08:05:26.419776
MEAN_MOTION    = 14.85603165
ECCENTRICITY   = .00223264
INCLINATION    = 82.5010
RA_OF_ASC_NODE = 8.2086
ARG_OF_PERICENTER = 81.3555
MEAN_ANOMALY   = 279.0190

EPHEMERIS_TYPE = 0
CLASSIFICATION_TYPE = U
NORAD_CAT_ID   = 18153
ELEMENT_SET_NO = 999
REV_AT_EPOCH   = 6691
BSTAR          = .64091803E-4
MEAN_MOTION_DOT = .581E-5
MEAN_MOTION_DDOT = 0

CCSDS_OMM_VERS = 2.0
CREATION_DATE  = 
ORIGINATOR     = 

OBJECT_NAME    = COSMOS 1867
OBJECT_ID      = 1987-060A
CENTER_NAME    = EARTH
REF_FRAME      = TEME
TIME_SYSTEM    = UTC
MEAN_ELEMENT_THEORY = SGP/SGP4

EPOCH          = 2026-02-17T06:01:48.541728
MEAN_MOTION    = 14.31499693
ECCENTRICITY   = .0014172
INCLINATION    = 65.0122
RA_OF_ASC_NODE = 3.9400
ARG_OF_PERICENTER = 277.4997
MEAN_ANOMALY   = 82.4477

EPHEMERIS_TYPE = 0
CLASSIFICATION_TYPE = U
NORAD_CAT_ID   = 18187
ELEMENT_SET_NO = 999
REV_AT_EPOCH   = 1701
BSTAR          = .23505E-4
MEAN_MOTION_DOT = -.38E-6
MEAN_MOTION_DDOT = 0

CCSDS_OMM_VERS = 2.0
CREATION_DATE  = 
ORIGINATOR     = 

OBJECT_NAME    = SL-14 R/B
OBJECT_ID      = 1988-001B
CENTER_NAME    = EARTH
REF_FRAME      = TEME
TIME_SYSTEM    = UTC
MEAN_ELEMENT_THEORY = SGP/SGP4

EPOCH          = 2026-02-17T12:47:36.891168
MEAN_MOTION    = 14.85501778
ECCENTRICITY   = .0016868
INCLINATION    = 82.5117
RA_OF_ASC_NODE = 214.3171
ARG_OF_PERICENTER = 308.1690
MEAN_ANOMALY   = 51.8006

EPHEMERIS_TYPE = 0
CLASSIFICATION_TYPE = U
NORAD_CAT_ID   = 18749
ELEMENT_SET_NO = 999
REV_AT_EPOCH   = 3903
BSTAR          = .5336E-4
MEAN_MOTION_DOT = .485E-5
MEAN_MOTION_DDOT = 0

